{"type": "FeatureCollection", "features": [ {"type": "Feature", "properties": {"norad_id": 33841, "name": "COSMOS 2251 DEB", "group": "cosmos-2251-debris", "lat": 24.042658608534843, "lon": 74.91718363575026, "alt_km": 779.4040599206801, "timestamp": "2025-12-21T07:34:34.907548+00:00", "meta": {"OBJECT_NAME": "COSMOS 2251 DEB", "OBJECT_ID": "1993-036CJ", "EPOCH": "2025-12-20T04:50:53.448864", "MEAN_MOTION": 14.3787057, "ECCENTRICITY": 0.00208485, "INCLINATION": 74.0378, "RA_OF_ASC_NODE": 264.3028, "ARG_OF_PERICENTER": 343.2857, "MEAN_ANOMALY": 169.0859, "EPHEMERIS_TYPE": 0, "CLASSIFICATION_TYPE": "U", "NORAD_CAT_ID": 33841, "ELEMENT_SET_NO": 999, "REV_AT_EPOCH": 88221, "BSTAR": 0.00015733139, "MEAN_MOTION_DOT": 4.49e-06, "MEAN_MOTION_DDOT": 0}, "tle": {"line1": "1 33841U 93036CJ  25354.20200751  .00000449  00000+0  15733-3 0  9994", "line2": "2 33841  74.0378 264.3028 0020848 343.2857 169.0859 14.37870570882210"}}, "geometry": {"type": "Point", "coordinates": [74.91718363575026, 24.042658608534843]}}, {"type": "Feature", "properties": {"norad_id": 33842, "name": "COSMOS 2251 DEB", "group": "cosmos-2251-debris", "lat": -17.664275502245914, "lon": 28.965414665383108, "alt_km": 766.1720069790917, "timestamp": "2025-12-21T07:34:34.907557+00:00", "meta": {"OBJECT_NAME": "COSMOS 2251 DEB", "OBJECT_ID": "1993-036CK", "EPOCH": "2025-12-20T15:40:41.308032", "MEAN_MOTION": 14.42711384, "ECCENTRICITY": 0.0047496, "INCLINATION": 74.0319, "RA_OF_ASC_NODE": 204.963, "ARG_OF_PERICENTER": 310.7162, "MEAN_ANOMALY": 48.9873, "EPHEMERIS_TYPE": 0, "CLASSIFICATION_TYPE": "U", "NORAD_CAT_ID": 33842, "ELEMENT_SET_NO": 999, "REV_AT_EPOCH": 88451, "BSTAR": 0.00018395, "MEAN_MOTION_DOT": 5.93e-06, "MEAN_MOTION_DDOT": 0}, "tle": {"line1": "1 33842U 93036CK  25354.65325588  .00000593  00000+0  18395-3 0  9997", "line2": "2 33842  74.0319 204.9630 0047496 310.7162  48.9873 14.42711384884510"}}, "geometry": {"type": "Point", "coordinates": [28.965414665383108, -17.664275502245914]}}, {"type": "Feature", "properties": {"norad_id": 33844, "name": "COSMOS 2251 DEB", "group": "cosmos-2251-debris", "lat": -31.217080789439294, "lon": -132.90824955516152, "alt_km": 815.7756808253152, "timestamp": "2025-12-21T07:34:34.907567+00:00", "meta": {"OBJECT_NAME": "COSMOS 2251 DEB", "OBJECT_ID": "1993-036CM", "EPOCH": "2025-12-20T21:20:34.679328", "MEAN_MOTION": 14.33731095, "ECCENTRICITY": 0.00471083, "INCLINATION": 74.0666, "RA_OF_ASC_NODE": 37.9003, "ARG_OF_PERICENTER": 57.2037, "MEAN_ANOMALY": 115.1862, "EPHEMERIS_TYPE": 0, "CLASSIFICATION_TYPE": "U", "NORAD_CAT_ID": 33844, "ELEMENT_SET_NO": 999, "REV_AT_EPOCH": 87842, "BSTAR": 0.00025063236, "MEAN_MOTION_DOT": 6.79e-06, "MEAN_MOTION_DDOT": 0}, "tle": {"line1": "1 33844U 93036CM  25354.88929027  .00000679  00000+0  25063-3 0  9997", "line2": "2 33844  74.0666  37.9003 0047108  57.2037 115.1862 14.33731095878428"}}, "geometry": {"type": "Point", "coordinates": [-132.90824955516152, -31.217080789439294]}}, {"type": "Feature", "properties": {"norad_id": 33848, "name": "COSMOS 2251 DEB", "group": "cosmos-2251-debris", "lat": -8.79197372098889, "lon": -20.8528306219502, "alt_km": 727.243307755446, "timestamp": "2025-12-21T07:34:34.907576+00:00", "meta": {"OBJECT_NAME": "COSMOS 2251 DEB", "OBJECT_ID": "1993-036CR", "EPOCH": "2025-12-20T23:27:20.649312", "MEAN_MOTION": 14.44112087, "ECCENTRICITY": 0.00416098, "INCLINATION": 74.0316, "RA_OF_ASC_NODE": 342.3147, "ARG_OF_PERICENTER": 35.6672, "MEAN_ANOMALY": 357.2782, "EPHEMERIS_TYPE": 0, "CLASSIFICATION_TYPE": "U", "NORAD_CAT_ID": 33848, "ELEMENT_SET_NO": 999, "REV_AT_EPOCH": 87950, "BSTAR": 0.00073799722, "MEAN_MOTION_DOT": 2.529e-05, "MEAN_MOTION_DDOT": 0}, "tle": {"line1": "1 33848U 93036CR  25354.97732233  .00002529  00000+0  73800-3 0  9990", "line2": "2 33848  74.0316 342.3147 0041609  35.6672 357.2782 14.44112087879507"}}, "geometry": {"type": "Point", "coordinates": [-20.8528306219502, -8.79197372098889]}}, {"type": "Feature", "properties": {"norad_id": 33892, "name": "COSMOS 2251 DEB", "group": "cosmos-2251-debris", "lat": -4.728606866585216, "lon": 85.03610976057351, "alt_km": 857.9368526293656, "timestamp": "2025-12-21T07:34:34.907585+00:00", "meta": {"OBJECT_NAME": "COSMOS 2251 DEB", "OBJECT_ID": "1993-036CV", "EPOCH": "2025-12-20T00:22:08.893344", "MEAN_MOTION": 14.23361225, "ECCENTRICITY": 0.01124489, "INCLINATION": 73.8027, "RA_OF_ASC_NODE": 88.7851, "ARG_OF_PERICENTER": 118.6054, "MEAN_ANOMALY": 57.4187, "EPHEMERIS_TYPE": 0, "CLASSIFICATION_TYPE": "U", "NORAD_CAT_ID": 33892, "ELEMENT_SET_NO": 999, "REV_AT_EPOCH": 87058, "BSTAR": 0.0004540357, "MEAN_MOTION_DOT": 1.073e-05, "MEAN_MOTION_DDOT": 0}, "tle": {"line1": "1 33892U 93036CV  25354.01538071  .00001073  00000+0  45404-3 0  9990", "line2": "2 33892  73.8027  88.7851 0112448 118.6054  57.4187 14.23361225870585"}}, "geometry": {"type": "Point", "coordinates": [85.03610976057351, -4.728606866585216]}}, {"type": "Feature", "properties": {"norad_id": 33894, "name": "COSMOS 2251 DEB", "group": "cosmos-2251-debris", "lat": 5.793043386120642, "lon": -22.49718138353185, "alt_km": 1323.4511712153299, "timestamp": "2025-12-21T07:34:34.907594+00:00", "meta": {"OBJECT_NAME": "COSMOS 2251 DEB", "OBJECT_ID": "1993-036CX", "EPOCH": "2025-12-19T22:50:18.443904", "MEAN_MOTION": 13.21320525, "ECCENTRICITY": 0.05791531, "INCLINATION": 73.767, "RA_OF_ASC_NODE": 337.9187, "ARG_OF_PERICENTER": 256.3901, "MEAN_ANOMALY": 97.2081, "EPHEMERIS_TYPE": 0, "CLASSIFICATION_TYPE": "U", "NORAD_CAT_ID": 33894, "ELEMENT_SET_NO": 999, "REV_AT_EPOCH": 80803, "BSTAR": 0.00109059, "MEAN_MOTION_DOT": 1.062e-05, "MEAN_MOTION_DDOT": 0}, "tle": {"line1": "1 33894U 93036CX  25353.95160236  .00001062  00000+0  10906-2 0  9994", "line2": "2 33894  73.7670 337.9187 0579153 256.3901  97.2081 13.21320525808033"}}, "geometry": {"type": "Point", "coordinates": [-22.49718138353185, 5.793043386120642]}}, {"type": "Feature", "properties": {"norad_id": 33896, "name": "COSMOS 2251 DEB", "group": "cosmos-2251-debris", "lat": -62.854777727831255, "lon": 106.48607816922089, "alt_km": 751.2225387457856, "timestamp": "2025-12-21T07:34:34.907603+00:00", "meta": {"OBJECT_NAME": "COSMOS 2251 DEB", "OBJECT_ID": "1993-036CZ", "EPOCH": "2025-12-20T20:46:15.406176", "MEAN_MOTION": 14.1905557, "ECCENTRICITY": 0.01268674, "INCLINATION": 73.7663, "RA_OF_ASC_NODE": 141.9309, "ARG_OF_PERICENTER": 316.3248, "MEAN_ANOMALY": 197.2126, "EPHEMERIS_TYPE": 0, "CLASSIFICATION_TYPE": "U", "NORAD_CAT_ID": 33896, "ELEMENT_SET_NO": 999, "REV_AT_EPOCH": 86855, "BSTAR": 0.00032563489, "MEAN_MOTION_DOT": 7.09e-06, "MEAN_MOTION_DDOT": 0}, "tle": {"line1": "1 33896U 93036CZ  25354.86545609  .00000709  00000+0  32563-3 0  9999", "line2": "2 33896  73.7663 141.9309 0126867 316.3248 197.2126 14.19055570868554"}}, "geometry": {"type": "Point", "coordinates": [106.48607816922089, -62.854777727831255]}}, {"type": "Feature", "properties": {"norad_id": 33899, "name": "COSMOS 2251 DEB", "group": "cosmos-2251-debris", "lat": 6.278459473097258, "lon": -112.45541803284773, "alt_km": 662.0912510366588, "timestamp": "2025-12-21T07:34:34.907612+00:00", "meta": {"OBJECT_NAME": "COSMOS 2251 DEB", "OBJECT_ID": "1993-036DC", "EPOCH": "2025-12-20T04:37:37.423200", "MEAN_MOTION": 14.61249146, "ECCENTRICITY": 0.00562569, "INCLINATION": 74.0544, "RA_OF_ASC_NODE": 71.4909, "ARG_OF_PERICENTER": 132.0189, "MEAN_ANOMALY": 256.3671, "EPHEMERIS_TYPE": 0, "CLASSIFICATION_TYPE": "U", "NORAD_CAT_ID": 33899, "ELEMENT_SET_NO": 999, "REV_AT_EPOCH": 88948, "BSTAR": 0.0005222702, "MEAN_MOTION_DOT": 2.604e-05, "MEAN_MOTION_DDOT": 0}, "tle": {"line1": "1 33899U 93036DC  25354.19279425  .00002604  00000+0  52227-3 0  9993", "line2": "2 33899  74.0544  71.4909 0056256 132.0189 256.3671 14.61249146889481"}}, "geometry": {"type": "Point", "coordinates": [-112.45541803284773, 6.278459473097258]}}, {"type": "Feature", "properties": {"norad_id": 33900, "name": "COSMOS 2251 DEB", "group": "cosmos-2251-debris", "lat": 56.44689447425825, "lon": 137.9206915348483, "alt_km": 660.6527449132882, "timestamp": "2025-12-21T07:34:34.907621+00:00", "meta": {"OBJECT_NAME": "COSMOS 2251 DEB", "OBJECT_ID": "1993-036DD", "EPOCH": "2025-12-20T22:55:49.969344", "MEAN_MOTION": 14.58372709, "ECCENTRICITY": 0.00464826, "INCLINATION": 74.0182, "RA_OF_ASC_NODE": 344.209, "ARG_OF_PERICENTER": 133.9306, "MEAN_ANOMALY": 255.4871, "EPHEMERIS_TYPE": 0, "CLASSIFICATION_TYPE": "U", "NORAD_CAT_ID": 33900, "ELEMENT_SET_NO": 999, "REV_AT_EPOCH": 89156, "BSTAR": 0.00025667658, "MEAN_MOTION_DOT": 1.176e-05, "MEAN_MOTION_DDOT": 0}, "tle": {"line1": "1 33900U 93036DD  25354.95543946  .00001176  00000+0  25668-3 0  9994", "line2": "2 33900  74.0182 344.2090 0046482 133.9306 255.4871 14.58372709891567"}}, "geometry": {"type": "Point", "coordinates": [137.9206915348483, 56.44689447425825]}}, {"type": "Feature", "properties": {"norad_id": 33901, "name": "COSMOS 2251 DEB", "group": "cosmos-2251-debris", "lat": 73.75211192037871, "lon": 123.39490400716035, "alt_km": 501.5959960619339, "timestamp": "2025-12-21T07:34:34.907630+00:00", "meta": {"OBJECT_NAME": "COSMOS 2251 DEB", "OBJECT_ID": "1993-036DE", "EPOCH": "2025-12-20T20:05:46.640832", "MEAN_MOTION": 15.16726568, "ECCENTRICITY": 0.00302682, "INCLINATION": 73.7748, "RA_OF_ASC_NODE": 32.1457, "ARG_OF_PERICENTER": 163.4083, "MEAN_ANOMALY": 196.811, "EPHEMERIS_TYPE": 0, "CLASSIFICATION_TYPE": "U", "NORAD_CAT_ID": 33901, "ELEMENT_SET_NO": 999, "REV_AT_EPOCH": 89636, "BSTAR": 0.0017870279, "MEAN_MOTION_DOT": 0.00035592, "MEAN_MOTION_DDOT": 0}, "tle": {"line1": "1 33901U 93036DE  25354.83734538  .00035592  00000+0  17870-2 0  9995", "line2": "2 33901  73.7748  32.1457 0030268 163.4083 196.8110 15.16726568896365"}}, "geometry": {"type": "Point", "coordinates": [123.39490400716035, 73.75211192037871]}}]}